{
  "type": "FeatureCollection",
  "features": [
    {
      "type": "Feature",
      "properties": {
        "norad_id": 40376,
        "name": "SMAP",
        "group": "resource",
        "lat": 75.56318999983807,
        "lon": -34.95211950988632,
        "alt_km": 674.3493369644602,
        "timestamp": "2025-12-20T03:42:47.049298+00:00",
        "meta_object_name": "SMAP",
        "meta_object_id": "2015-003A",
        "meta_epoch": "2025-12-19T19:09:09.440352",
        "meta_mean_motion": 14.63353304,
        "meta_eccentricity": 0.0001223,
        "meta_inclination": 98.1288,
        "meta_ra_of_asc_node": 358.4201,
        "meta_arg_of_pericenter": 91.7579,
        "meta_mean_anomaly": 268.3763,
        "meta_ephemeris_type": 0,
        "meta_classification_type": "U",
        "meta_norad_cat_id": 40376,
        "meta_element_set_no": 999,
        "meta_rev_at_epoch": 58138,
        "meta_bstar": 8.2005e-05,
        "meta_mean_motion_dot": 3.77e-06,
        "meta_mean_motion_ddot": 0,
        "tle_line1": "1 40376U 15003A   25353.79802593  .00000377  00000+0  82005-4 0  9995",
        "tle_line2": "2 40376  98.1288 358.4201 0001223  91.7579 268.3763 14.63353304581389"
      },
      "geometry": {
        "type": "Point",
        "coordinates": [
          -34.95211950988632,
          75.56318999983807
        ]
      }
    },
    {
      "type": "Feature",
      "properties": {
        "norad_id": 40536,
        "name": "KOMPSAT-3A",
        "group": "resource",
        "lat": 57.7059398925411,
        "lon": 161.23823464104603,
        "alt_km": 424.59303859378906,
        "timestamp": "2025-12-20T03:42:47.049308+00:00",
        "meta_object_name": "KOMPSAT-3A",
        "meta_object_id": "2015-014A",
        "meta_epoch": "2025-12-19T20:58:06.911040",
        "meta_mean_motion": 15.441932,
        "meta_eccentricity": 0.0005414,
        "meta_inclination": 97.6789,
        "meta_ra_of_asc_node": 328.6151,
        "meta_arg_of_pericenter": 111.1559,
        "meta_mean_anomaly": 249.0267,
        "meta_ephemeris_type": 0,
        "meta_classification_type": "U",
        "meta_norad_cat_id": 40536,
        "meta_element_set_no": 999,
        "meta_rev_at_epoch": 59405,
        "meta_bstar": 0.00030729,
        "meta_mean_motion_dot": 0.00014017,
        "meta_mean_motion_ddot": 0,
        "tle_line1": "1 40536U 15014A   25353.87369110  .00014017  00000+0  30729-3 0  9998",
        "tle_line2": "2 40536  97.6789 328.6151 0005414 111.1559 249.0267 15.44193200594051"
      },
      "geometry": {
        "type": "Point",
        "coordinates": [
          161.23823464104603,
          57.7059398925411
        ]
      }
    },
    {
      "type": "Feature",
      "properties": {
        "norad_id": 40697,
        "name": "SENTINEL-2A",
        "group": "resource",
        "lat": 20.340844094986842,
        "lon": -110.21062856815566,
        "alt_km": 788.7652025284797,
        "timestamp": "2025-12-20T03:42:47.049318+00:00",
        "meta_object_name": "SENTINEL-2A",
        "meta_object_id": "2015-028A",
        "meta_epoch": "2025-12-19T20:15:27.640224",
        "meta_mean_motion": 14.30807056,
        "meta_eccentricity": 0.000107,
        "meta_inclination": 98.5745,
        "meta_ra_of_asc_node": 66.2766,
        "meta_arg_of_pericenter": 87.8162,
        "meta_mean_anomaly": 272.3143,
        "meta_ephemeris_type": 0,
        "meta_classification_type": "U",
        "meta_norad_cat_id": 40697,
        "meta_element_set_no": 999,
        "meta_rev_at_epoch": 54808,
        "meta_bstar": -2.4633e-05,
        "meta_mean_motion_dot": -1.08e-06,
        "meta_mean_motion_ddot": 0,
        "tle_line1": "1 40697U 15028A   25353.84406991 -.00000108  00000+0 -24633-4 0  9993",
        "tle_line2": "2 40697  98.5745  66.2766 0001070  87.8162 272.3143 14.30807056548080"
      },
      "geometry": {
        "type": "Point",
        "coordinates": [
          -110.21062856815566,
          20.340844094986842
        ]
      }
    },
    {
      "type": "Feature",
      "properties": {
        "norad_id": 40701,
        "name": "GAOFEN-8",
        "group": "resource",
        "lat": -20.72462158161337,
        "lon": -10.273242903279836,
        "alt_km": 454.7210977618033,
        "timestamp": "2025-12-20T03:42:47.049329+00:00",
        "meta_object_name": "GAOFEN-8",
        "meta_object_id": "2015-030A",
        "meta_epoch": "2025-12-19T20:36:05.468832",
        "meta_mean_motion": 15.3878205,
        "meta_eccentricity": 0.0011898,
        "meta_inclination": 97.6901,
        "meta_ra_of_asc_node": 172.3466,
        "meta_arg_of_pericenter": 113.9768,
        "meta_mean_anomaly": 246.2723,
        "meta_ephemeris_type": 0,
        "meta_classification_type": "U",
        "meta_norad_cat_id": 40701,
        "meta_element_set_no": 999,
        "meta_rev_at_epoch": 58380,
        "meta_bstar": 0.00044989,
        "meta_mean_motion_dot": 0.0001722,
        "meta_mean_motion_ddot": 0,
        "tle_line1": "1 40701U 15030A   25353.85839663  .00017220  00000+0  44989-3 0  9995",
        "tle_line2": "2 40701  97.6901 172.3466 0011898 113.9768 246.2723 15.38782050583806"
      },
      "geometry": {
        "type": "Point",
        "coordinates": [
          -10.273242903279836,
          -20.72462158161337
        ]
      }
    },
    {
      "type": "Feature",
      "properties": {
        "norad_id": 40718,
        "name": "CARBONITE 1 (CBNT-1)",
        "group": "resource",
        "lat": 78.62149107235608,
        "lon": 133.0399510191348,
        "alt_km": 610.6271421662123,
        "timestamp": "2025-12-20T03:42:47.049339+00:00",
        "meta_object_name": "CARBONITE 1 (CBNT-1)",
        "meta_object_id": "2015-032D",
        "meta_epoch": "2025-12-19T19:14:53.960352",
        "meta_mean_motion": 14.82776851,
        "meta_eccentricity": 0.001495,
        "meta_inclination": 97.6394,
        "meta_ra_of_asc_node": 174.5345,
        "meta_arg_of_pericenter": 158.3068,
        "meta_mean_anomaly": 201.8782,
        "meta_ephemeris_type": 0,
        "meta_classification_type": "U",
        "meta_norad_cat_id": 40718,
        "meta_element_set_no": 999,
        "meta_rev_at_epoch": 56275,
        "meta_bstar": 0.000299,
        "meta_mean_motion_dot": 2.371e-05,
        "meta_mean_motion_ddot": 0,
        "tle_line1": "1 40718U 15032D   25353.80201343  .00002371  00000+0  29900-3 0  9995",
        "tle_line2": "2 40718  97.6394 174.5345 0014950 158.3068 201.8782 14.82776851562751"
      },
      "geometry": {
        "type": "Point",
        "coordinates": [
          133.0399510191348,
          78.62149107235608
        ]
      }
    },
    {
      "type": "Feature",
      "properties": {
        "norad_id": 40878,
        "name": "YAOGAN-27",
        "group": "resource",
        "lat": 16.99517390265143,
        "lon": -19.683593463080307,
        "alt_km": 1201.9648663246508,
        "timestamp": "2025-12-20T03:42:47.049350+00:00",
        "meta_object_name": "YAOGAN-27",
        "meta_object_id": "2015-040A",
        "meta_epoch": "2025-12-19T20:19:39.015840",
        "meta_mean_motion": 13.16060735,
        "meta_eccentricity": 0.0007585,
        "meta_inclination": 100.1006,
        "meta_ra_of_asc_node": 343.1455,
        "meta_arg_of_pericenter": 269.0607,
        "meta_mean_anomaly": 90.9637,
        "meta_ephemeris_type": 0,
        "meta_classification_type": "U",
        "meta_norad_cat_id": 40878,
        "meta_element_set_no": 999,
        "meta_rev_at_epoch": 49407,
        "meta_bstar": -0.0005338,
        "meta_mean_motion_dot": -2.45e-06,
        "meta_mean_motion_ddot": 0,
        "tle_line1": "1 40878U 15040A   25353.84697935 -.00000245  00000+0 -53380-3 0  9990",
        "tle_line2": "2 40878 100.1006 343.1455 0007585 269.0607  90.9637 13.16060735494077"
      },
      "geometry": {
        "type": "Point",
        "coordinates": [
          -19.683593463080307,
          16.99517390265143
        ]
      }
    },
    {
      "type": "Feature",
      "properties": {
        "norad_id": 40894,
        "name": "GAOFEN-9 01",
        "group": "resource",
        "lat": -6.422467840380218,
        "lon": 33.657030239680346,
        "alt_km": 606.8184695432728,
        "timestamp": "2025-12-20T03:42:47.049361+00:00",
        "meta_object_name": "GAOFEN-9 01",
        "meta_object_id": "2015-047A",
        "meta_epoch": "2025-12-19T21:15:44.269056",
        "meta_mean_motion": 14.82438582,
        "meta_eccentricity": 0.002782,
        "meta_inclination": 97.6533,
        "meta_ra_of_asc_node": 32.5326,
        "meta_arg_of_pericenter": 11.3588,
        "meta_mean_anomaly": 348.8248,
        "meta_ephemeris_type": 0,
        "meta_classification_type": "U",
        "meta_norad_cat_id": 40894,
        "meta_element_set_no": 999,
        "meta_rev_at_epoch": 55362,
        "meta_bstar": 0.00010464,
        "meta_mean_motion_dot": 7.93e-06,
        "meta_mean_motion_ddot": 0,
        "tle_line1": "1 40894U 15047A   25353.88592904  .00000793  00000+0  10464-3 0  9991",
        "tle_line2": "2 40894  97.6533  32.5326 0027820  11.3588 348.8248 14.82438582553629"
      },
      "geometry": {
        "type": "Point",
        "coordinates": [
          33.657030239680346,
          -6.422467840380218
        ]
      }
    }
  ]
}